{"type": "FeatureCollection", "features": [ {"type": "Feature", "properties": {"norad_id": 39574, "name": "GPM-CORE", "group": "resource", "lat": 28.06468113426351, "lon": 50.22001895772636, "alt_km": 432.3179959888366, "timestamp": "2025-12-03T04:52:29.298388+00:00", "meta": {"OBJECT_NAME": "GPM-CORE", "OBJECT_ID": "2014-009C", "EPOCH": "2025-12-02T20:27:58.414752", "MEAN_MOTION": 15.45149133, "ECCENTRICITY": 0.0010575, "INCLINATION": 64.9754, "RA_OF_ASC_NODE": 245.8163, "ARG_OF_PERICENTER": 268.6263, "MEAN_ANOMALY": 91.3666, "EPHEMERIS_TYPE": 0, "CLASSIFICATION_TYPE": "U", "NORAD_CAT_ID": 39574, "ELEMENT_SET_NO": 999, "REV_AT_EPOCH": 66748, "BSTAR": 0.00041238, "MEAN_MOTION_DOT": 0.00019493, "MEAN_MOTION_DDOT": 0}, "tle": {"line1": "1 39574U 14009C   25336.85275943  .00019493  00000+0  41238-3 0  9990", "line2": "2 39574  64.9754 245.8163 0010575 268.6263  91.3666 15.45149133667483"}}, "geometry": {"type": "Point", "coordinates": [50.22001895772636, 28.06468113426351]}}, {"type": "Feature", "properties": {"norad_id": 39634, "name": "SENTINEL-1A", "group": "resource", "lat": 79.46642676114713, "lon": -146.7351603036766, "alt_km": 687.502377634828, "timestamp": "2025-12-03T04:52:29.298398+00:00", "meta": {"OBJECT_NAME": "SENTINEL-1A", "OBJECT_ID": "2014-016A", "EPOCH": "2025-12-02T20:12:18.326592", "MEAN_MOTION": 14.59201094, "ECCENTRICITY": 0.0001253, "INCLINATION": 98.1805, "RA_OF_ASC_NODE": 342.2294, "ARG_OF_PERICENTER": 89.0937, "MEAN_ANOMALY": 271.0406, "EPHEMERIS_TYPE": 0, "CLASSIFICATION_TYPE": "U", "NORAD_CAT_ID": 39634, "ELEMENT_SET_NO": 999, "REV_AT_EPOCH": 62138, "BSTAR": 7.4644e-05, "MEAN_MOTION_DOT": 3.06e-06, "MEAN_MOTION_DDOT": 0}, "tle": {"line1": "1 39634U 14016A   25336.84187878  .00000306  00000+0  74644-4 0  9994", "line2": "2 39634  98.1805 342.2294 0001253  89.0937 271.0406 14.59201094621386"}}, "geometry": {"type": "Point", "coordinates": [-146.7351603036766, 79.46642676114713]}}, {"type": "Feature", "properties": {"norad_id": 39731, "name": "KAZEOSAT 1", "group": "resource", "lat": -60.24400918672006, "lon": 64.20060970460796, "alt_km": 759.5526072541534, "timestamp": "2025-12-03T04:52:29.298408+00:00", "meta": {"OBJECT_NAME": "KAZEOSAT 1", "OBJECT_ID": "2014-024A", "EPOCH": "2025-12-02T20:49:57.065376", "MEAN_MOTION": 14.42052986, "ECCENTRICITY": 0.0001053, "INCLINATION": 98.3445, "RA_OF_ASC_NODE": 48.9965, "ARG_OF_PERICENTER": 98.5692, "MEAN_ANOMALY": 261.5617, "EPHEMERIS_TYPE": 0, "CLASSIFICATION_TYPE": "U", "NORAD_CAT_ID": 39731, "ELEMENT_SET_NO": 999, "REV_AT_EPOCH": 61026, "BSTAR": 0.00011563, "MEAN_MOTION_DOT": 3.37e-06, "MEAN_MOTION_DDOT": 0}, "tle": {"line1": "1 39731U 14024A   25336.86802159  .00000337  00000+0  11563-3 0  9993", "line2": "2 39731  98.3445  48.9965 0001053  98.5692 261.5617 14.42052986610261"}}, "geometry": {"type": "Point", "coordinates": [64.20060970460796, -60.24400918672006]}}, {"type": "Feature", "properties": {"norad_id": 39766, "name": "ALOS-2", "group": "resource", "lat": -19.03413222844568, "lon": 74.93932969017702, "alt_km": 636.8283064668831, "timestamp": "2025-12-03T04:52:29.298418+00:00", "meta": {"OBJECT_NAME": "ALOS-2", "OBJECT_ID": "2014-029A", "EPOCH": "2025-12-02T20:50:43.577088", "MEAN_MOTION": 14.79446158, "ECCENTRICITY": 0.0001505, "INCLINATION": 97.9236, "RA_OF_ASC_NODE": 71.8555, "ARG_OF_PERICENTER": 108.9474, "MEAN_ANOMALY": 251.19, "EPHEMERIS_TYPE": 0, "CLASSIFICATION_TYPE": "U", "NORAD_CAT_ID": 39766, "ELEMENT_SET_NO": 999, "REV_AT_EPOCH": 62255, "BSTAR": 0.00037603, "MEAN_MOTION_DOT": 2.756e-05, "MEAN_MOTION_DDOT": 0}, "tle": {"line1": "1 39766U 14029A   25336.86855992  .00002756  00000+0  37603-3 0  9999", "line2": "2 39766  97.9236  71.8555 0001505 108.9474 251.1900 14.79446158622551"}}, "geometry": {"type": "Point", "coordinates": [74.93932969017702, -19.03413222844568]}}, {"type": "Feature", "properties": {"norad_id": 40010, "name": "KAZEOSAT 2", "group": "resource", "lat": 55.287869996783684, "lon": 170.9699880492991, "alt_km": 612.9213051175466, "timestamp": "2025-12-03T04:52:29.298428+00:00", "meta": {"OBJECT_NAME": "KAZEOSAT 2", "OBJECT_ID": "2014-033A", "EPOCH": "2025-12-02T20:32:17.282112", "MEAN_MOTION": 14.85141248, "ECCENTRICITY": 0.0007222, "INCLINATION": 97.5512, "RA_OF_ASC_NODE": 181.6802, "ARG_OF_PERICENTER": 243.7828, "MEAN_ANOMALY": 116.2646, "EPHEMERIS_TYPE": 0, "CLASSIFICATION_TYPE": "U", "NORAD_CAT_ID": 40010, "ELEMENT_SET_NO": 999, "REV_AT_EPOCH": 61981, "BSTAR": 0.00012835, "MEAN_MOTION_DOT": 1.049e-05, "MEAN_MOTION_DDOT": 0}, "tle": {"line1": "1 40010U 14033A   25336.85575558  .00001049  00000+0  12835-3 0  9998", "line2": "2 40010  97.5512 181.6802 0007222 243.7828 116.2646 14.85141248619818"}}, "geometry": {"type": "Point", "coordinates": [170.9699880492991, 55.287869996783684]}}, {"type": "Feature", "properties": {"norad_id": 40011, "name": "HODOYOSHI-4", "group": "resource", "lat": 63.9072869430595, "lon": 150.86192548803362, "alt_km": 615.2678829347769, "timestamp": "2025-12-03T04:52:29.298438+00:00", "meta": {"OBJECT_NAME": "HODOYOSHI-4", "OBJECT_ID": "2014-033B", "EPOCH": "2025-12-02T20:30:36.129312", "MEAN_MOTION": 14.87421712, "ECCENTRICITY": 0.0022644, "INCLINATION": 97.5416, "RA_OF_ASC_NODE": 166.2256, "ARG_OF_PERICENTER": 234.5599, "MEAN_ANOMALY": 125.3504, "EPHEMERIS_TYPE": 0, "CLASSIFICATION_TYPE": "U", "NORAD_CAT_ID": 40011, "ELEMENT_SET_NO": 999, "REV_AT_EPOCH": 61961, "BSTAR": 0.00026952, "MEAN_MOTION_DOT": 2.398e-05, "MEAN_MOTION_DDOT": 0}, "tle": {"line1": "1 40011U 14033B   25336.85458483  .00002398  00000+0  26952-3 0  9999", "line2": "2 40011  97.5416 166.2256 0022644 234.5599 125.3504 14.87421712619613"}}, "geometry": {"type": "Point", "coordinates": [150.86192548803362, 63.9072869430595]}}, {"type": "Feature", "properties": {"norad_id": 40013, "name": "DEIMOS-2", "group": "resource", "lat": 33.713285809102764, "lon": -151.79919644009, "alt_km": 586.4745171763934, "timestamp": "2025-12-03T04:52:29.298448+00:00", "meta": {"OBJECT_NAME": "DEIMOS-2", "OBJECT_ID": "2014-033D", "EPOCH": "2025-12-02T20:40:47.022240", "MEAN_MOTION": 14.92898412, "ECCENTRICITY": 7.55e-05, "INCLINATION": 97.6073, "RA_OF_ASC_NODE": 212.987, "ARG_OF_PERICENTER": 84.3065, "MEAN_ANOMALY": 275.8241, "EPHEMERIS_TYPE": 0, "CLASSIFICATION_TYPE": "U", "NORAD_CAT_ID": 40013, "ELEMENT_SET_NO": 999, "REV_AT_EPOCH": 60842, "BSTAR": 0.00032568, "MEAN_MOTION_DOT": 3.322e-05, "MEAN_MOTION_DDOT": 0}, "tle": {"line1": "1 40013U 14033D   25336.86165535  .00003322  00000+0  32568-3 0  9993", "line2": "2 40013  97.6073 212.9870 0000755  84.3065 275.8241 14.92898412608421"}}, "geometry": {"type": "Point", "coordinates": [-151.79919644009, 33.713285809102764]}}, {"type": "Feature", "properties": {"norad_id": 40015, "name": "HODOYOSHI-3", "group": "resource", "lat": 79.05728038135527, "lon": 99.63595976953489, "alt_km": 628.1410008050643, "timestamp": "2025-12-03T04:52:29.298459+00:00", "meta": {"OBJECT_NAME": "HODOYOSHI-3", "OBJECT_ID": "2014-033F", "EPOCH": "2025-12-02T12:19:51.311712", "MEAN_MOTION": 14.84748207, "ECCENTRICITY": 0.00318586, "INCLINATION": 97.6193, "RA_OF_ASC_NODE": 142.7937, "ARG_OF_PERICENTER": 282.9664, "MEAN_ANOMALY": 76.7994, "EPHEMERIS_TYPE": 0, "CLASSIFICATION_TYPE": "U", "NORAD_CAT_ID": 40015, "ELEMENT_SET_NO": 999, "REV_AT_EPOCH": 61843, "BSTAR": 0.00027962747, "MEAN_MOTION_DOT": 2.339e-05, "MEAN_MOTION_DDOT": 0}, "tle": {"line1": "1 40015U 14033F   25336.51378833  .00002339  00000+0  27963-3 0  9994", "line2": "2 40015  97.6193 142.7937 0031858 282.9664  76.7994 14.84748207618431"}}, "geometry": {"type": "Point", "coordinates": [99.63595976953489, 79.05728038135527]}}, {"type": "Feature", "properties": {"norad_id": 40053, "name": "SPOT 7", "group": "resource", "lat": -81.85539448007911, "lon": 135.7189363069617, "alt_km": 699.2852040510643, "timestamp": "2025-12-03T04:52:29.298468+00:00", "meta": {"OBJECT_NAME": "SPOT 7", "OBJECT_ID": "2014-034A", "EPOCH": "2025-12-02T19:25:35.036256", "MEAN_MOTION": 14.60712656, "ECCENTRICITY": 0.0001514, "INCLINATION": 98.092, "RA_OF_ASC_NODE": 39.1133, "ARG_OF_PERICENTER": 97.3627, "MEAN_ANOMALY": 262.7746, "EPHEMERIS_TYPE": 0, "CLASSIFICATION_TYPE": "U", "NORAD_CAT_ID": 40053, "ELEMENT_SET_NO": 999, "REV_AT_EPOCH": 60846, "BSTAR": 0.00017373, "MEAN_MOTION_DOT": 8.01e-06, "MEAN_MOTION_DDOT": 0}, "tle": {"line1": "1 40053U 14034A   25336.80943329  .00000801  00000+0  17373-3 0  9993", "line2": "2 40053  98.0920  39.1133 0001514  97.3627 262.7746 14.60712656608463"}}, "geometry": {"type": "Point", "coordinates": [135.7189363069617, -81.85539448007911]}}, {"type": "Feature", "properties": {"norad_id": 40072, "name": "SKYSAT-B", "group": "resource", "lat": 12.525397404024352, "lon": -81.46525790485671, "alt_km": 611.3556651868385, "timestamp": "2025-12-03T04:52:29.298478+00:00", "meta": {"OBJECT_NAME": "SKYSAT-B", "OBJECT_ID": "2014-037D", "EPOCH": "2025-12-02T19:07:47.699904", "MEAN_MOTION": 14.87265711, "ECCENTRICITY": 0.0005337, "INCLINATION": 98.3591, "RA_OF_ASC_NODE": 279.9794, "ARG_OF_PERICENTER": 181.1149, "MEAN_ANOMALY": 179.0054, "EPHEMERIS_TYPE": 0, "CLASSIFICATION_TYPE": "U", "NORAD_CAT_ID": 40072, "ELEMENT_SET_NO": 999, "REV_AT_EPOCH": 61676, "BSTAR": 0.0003336, "MEAN_MOTION_DOT": 2.947e-05, "MEAN_MOTION_DDOT": 0}, "tle": {"line1": "1 40072U 14037D   25336.79707986  .00002947  00000+0  33360-3 0  9999", "line2": "2 40072  98.3591 279.9794 0005337 181.1149 179.0054 14.87265711616764"}}, "geometry": {"type": "Point", "coordinates": [-81.46525790485671, 12.525397404024352]}}]}